[Satellite]
VERSION=1.1
NAME=METEOR PRIRODA
NICKNAME=METEOR PRIRODA
TLE1=1 12585U 81065A   17186.00505279  .00000500  00000-0  26130-4 0  9993
TLE2=2 12585  97.4318 165.0520 0014304 344.4983  15.5812 15.20357540959165
